{"type": "FeatureCollection", "features": [ {"type": "Feature", "properties": {"norad_id": 35208, "name": "FENGYUN 1C DEB", "group": "fengyun-1c-debris", "lat": 80.0160748571139, "lon": -45.566570709605585, "alt_km": 829.5876664860752, "timestamp": "2025-12-24T11:33:00.305188+00:00", "meta": {"OBJECT_NAME": "FENGYUN 1C DEB", "OBJECT_ID": "1999-025DPQ", "EPOCH": "2025-12-12T19:29:45.564288", "MEAN_MOTION": 13.99657071, "ECCENTRICITY": 0.01013151, "INCLINATION": 98.903, "RA_OF_ASC_NODE": 6.0094, "ARG_OF_PERICENTER": 156.4473, "MEAN_ANOMALY": 204.1379, "EPHEMERIS_TYPE": 0, "CLASSIFICATION_TYPE": "U", "NORAD_CAT_ID": 35208, "ELEMENT_SET_NO": 999, "REV_AT_EPOCH": 90564, "BSTAR": 0.0013122763, "MEAN_MOTION_DOT": 1.963e-05, "MEAN_MOTION_DDOT": 0}, "tle": {"line1": "1 35208U 99025DPQ 25346.81233292  .00001963  00000+0  13123-2 0  9993", "line2": "2 35208  98.9030   6.0094 0101315 156.4473 204.1379 13.99657071905647"}}, "geometry": {"type": "Point", "coordinates": [-45.566570709605585, 80.0160748571139]}}, {"type": "Feature", "properties": {"norad_id": 35210, "name": "FENGYUN 1C DEB", "group": "fengyun-1c-debris", "lat": 21.381868908848233, "lon": -0.7207831279428359, "alt_km": 814.3069420174525, "timestamp": "2025-12-24T11:33:00.305199+00:00", "meta": {"OBJECT_NAME": "FENGYUN 1C DEB", "OBJECT_ID": "1999-025DPS", "EPOCH": "2025-12-21T12:08:09.731616", "MEAN_MOTION": 14.33731534, "ECCENTRICITY": 0.00494304, "INCLINATION": 99.0977, "RA_OF_ASC_NODE": 359.7491, "ARG_OF_PERICENTER": 213.3561, "MEAN_ANOMALY": 298.6151, "EPHEMERIS_TYPE": 0, "CLASSIFICATION_TYPE": "U", "NORAD_CAT_ID": 35210, "ELEMENT_SET_NO": 999, "REV_AT_EPOCH": 90248, "BSTAR": 0.0016885673, "MEAN_MOTION_DOT": 4.708e-05, "MEAN_MOTION_DDOT": 0}, "tle": {"line1": "1 35210U 99025DPS 25355.50566819  .00004708  00000+0  16886-2 0  9995", "line2": "2 35210  99.0977 359.7491 0049430 213.3561 298.6151 14.33731534902482"}}, "geometry": {"type": "Point", "coordinates": [-0.7207831279428359, 21.381868908848233]}}, {"type": "Feature", "properties": {"norad_id": 35217, "name": "FENGYUN 1C DEB", "group": "fengyun-1c-debris", "lat": -75.07862529343713, "lon": -31.782260699798243, "alt_km": 830.8115410696246, "timestamp": "2025-12-24T11:33:00.305209+00:00", "meta": {"OBJECT_NAME": "FENGYUN 1C DEB", "OBJECT_ID": "1999-025DPZ", "EPOCH": "2025-12-16T00:31:46.822080", "MEAN_MOTION": 13.57523725, "ECCENTRICITY": 0.03020457, "INCLINATION": 101.8758, "RA_OF_ASC_NODE": 265.8616, "ARG_OF_PERICENTER": 288.6471, "MEAN_ANOMALY": 68.209, "EPHEMERIS_TYPE": 0, "CLASSIFICATION_TYPE": "U", "NORAD_CAT_ID": 35217, "ELEMENT_SET_NO": 999, "REV_AT_EPOCH": 61264, "BSTAR": 0.0019543408, "MEAN_MOTION_DOT": 1.822e-05, "MEAN_MOTION_DDOT": 0}, "tle": {"line1": "1 35217U 99025DPZ 25350.02206970  .00001822  00000+0  19543-2 0  9990", "line2": "2 35217 101.8758 265.8616 0302045 288.6471  68.2090 13.57523725612648"}}, "geometry": {"type": "Point", "coordinates": [-31.782260699798243, -75.07862529343713]}}, {"type": "Feature", "properties": {"norad_id": 35220, "name": "FENGYUN 1C DEB", "group": "fengyun-1c-debris", "lat": -38.46604987153219, "lon": 76.06002875988219, "alt_km": 801.6279135702616, "timestamp": "2025-12-24T11:33:00.305219+00:00", "meta": {"OBJECT_NAME": "FENGYUN 1C DEB", "OBJECT_ID": "1999-025DQC", "EPOCH": "2025-12-23T03:39:41.085504", "MEAN_MOTION": 14.226262, "ECCENTRICITY": 0.00439954, "INCLINATION": 99.0276, "RA_OF_ASC_NODE": 67.4432, "ARG_OF_PERICENTER": 276.7268, "MEAN_ANOMALY": 82.8903, "EPHEMERIS_TYPE": 0, "CLASSIFICATION_TYPE": "U", "NORAD_CAT_ID": 35220, "ELEMENT_SET_NO": 999, "REV_AT_EPOCH": 63331, "BSTAR": 0.0016717154, "MEAN_MOTION_DOT": 3.73e-05, "MEAN_MOTION_DDOT": 0}, "tle": {"line1": "1 35220U 99025DQC 25357.15255886  .00003730  00000+0  16717-2 0  9995", "line2": "2 35220  99.0276  67.4432 0043995 276.7268  82.8903 14.22626200633312"}}, "geometry": {"type": "Point", "coordinates": [76.06002875988219, -38.46604987153219]}}, {"type": "Feature", "properties": {"norad_id": 35223, "name": "FENGYUN 1C DEB", "group": "fengyun-1c-debris", "lat": -12.04092774658281, "lon": 160.59502382862706, "alt_km": 614.1159854435728, "timestamp": "2025-12-24T11:33:00.305229+00:00", "meta": {"OBJECT_NAME": "FENGYUN 1C DEB", "OBJECT_ID": "1999-025DQF", "EPOCH": "2025-12-22T10:17:58.154784", "MEAN_MOTION": 14.89136656, "ECCENTRICITY": 0.01274549, "INCLINATION": 98.9722, "RA_OF_ASC_NODE": 340.202, "ARG_OF_PERICENTER": 295.2743, "MEAN_ANOMALY": 63.5308, "EPHEMERIS_TYPE": 0, "CLASSIFICATION_TYPE": "U", "NORAD_CAT_ID": 35223, "ELEMENT_SET_NO": 999, "REV_AT_EPOCH": 94026, "BSTAR": 0.00085325248, "MEAN_MOTION_DOT": 9.308e-05, "MEAN_MOTION_DDOT": 0}, "tle": {"line1": "1 35223U 99025DQF 25356.42914531  .00009308  00000+0  85325-3 0  9995", "line2": "2 35223  98.9722 340.2020 0127454 295.2743  63.5308 14.89136656940265"}}, "geometry": {"type": "Point", "coordinates": [160.59502382862706, -12.04092774658281]}}, {"type": "Feature", "properties": {"norad_id": 35229, "name": "FENGYUN 1C DEB", "group": "fengyun-1c-debris", "lat": -18.166716866938962, "lon": -105.0719014071044, "alt_km": 663.3613847455208, "timestamp": "2025-12-24T11:33:00.305240+00:00", "meta": {"OBJECT_NAME": "FENGYUN 1C DEB", "OBJECT_ID": "1999-025DQM", "EPOCH": "2025-12-21T00:28:03.999936", "MEAN_MOTION": 14.6104888, "ECCENTRICITY": 0.00465106, "INCLINATION": 98.458, "RA_OF_ASC_NODE": 74.1903, "ARG_OF_PERICENTER": 189.9892, "MEAN_ANOMALY": 170.0388, "EPHEMERIS_TYPE": 0, "CLASSIFICATION_TYPE": "U", "NORAD_CAT_ID": 35229, "ELEMENT_SET_NO": 999, "REV_AT_EPOCH": 64627, "BSTAR": 0.0032249287, "MEAN_MOTION_DOT": 0.00016061, "MEAN_MOTION_DDOT": 0}, "tle": {"line1": "1 35229U 99025DQM 25355.01949074  .00016061  00000+0  32249-2 0  9995", "line2": "2 35229  98.4580  74.1903 0046510 189.9892 170.0388 14.61048880646275"}}, "geometry": {"type": "Point", "coordinates": [-105.0719014071044, -18.166716866938962]}}, {"type": "Feature", "properties": {"norad_id": 35231, "name": "FENGYUN 1C DEB", "group": "fengyun-1c-debris", "lat": 6.167924684598646, "lon": 40.41814608796783, "alt_km": 826.8466507390713, "timestamp": "2025-12-24T11:33:00.305250+00:00", "meta": {"OBJECT_NAME": "FENGYUN 1C DEB", "OBJECT_ID": "1999-025DQP", "EPOCH": "2025-12-20T02:16:05.023776", "MEAN_MOTION": 14.14529124, "ECCENTRICITY": 0.00379148, "INCLINATION": 98.7195, "RA_OF_ASC_NODE": 37.0855, "ARG_OF_PERICENTER": 64.705, "MEAN_ANOMALY": 295.8044, "EPHEMERIS_TYPE": 0, "CLASSIFICATION_TYPE": "U", "NORAD_CAT_ID": 35231, "ELEMENT_SET_NO": 999, "REV_AT_EPOCH": 91606, "BSTAR": 2.8184415e-05, "MEAN_MOTION_DOT": 1.2e-07, "MEAN_MOTION_DDOT": 0}, "tle": {"line1": "1 35231U 99025DQP 25354.09450259  .00000012  00000+0  28184-4 0  9991", "line2": "2 35231  98.7195  37.0855 0037914  64.7050 295.8044 14.14529124916066"}}, "geometry": {"type": "Point", "coordinates": [40.41814608796783, 6.167924684598646]}}, {"type": "Feature", "properties": {"norad_id": 35233, "name": "FENGYUN 1C DEB", "group": "fengyun-1c-debris", "lat": 21.029612852905487, "lon": -78.66449667159719, "alt_km": 740.341929004202, "timestamp": "2025-12-24T11:33:00.305260+00:00", "meta": {"OBJECT_NAME": "FENGYUN 1C DEB", "OBJECT_ID": "1999-025DQR", "EPOCH": "2025-12-20T05:22:11.934336", "MEAN_MOTION": 14.41946551, "ECCENTRICITY": 0.0041838, "INCLINATION": 98.7729, "RA_OF_ASC_NODE": 93.5583, "ARG_OF_PERICENTER": 238.8758, "MEAN_ANOMALY": 151.8442, "EPHEMERIS_TYPE": 0, "CLASSIFICATION_TYPE": "U", "NORAD_CAT_ID": 35233, "ELEMENT_SET_NO": 999, "REV_AT_EPOCH": 91284, "BSTAR": 0.0012725, "MEAN_MOTION_DOT": 4.169e-05, "MEAN_MOTION_DDOT": 0}, "tle": {"line1": "1 35233U 99025DQR 25354.22374924  .00004169  00000+0  12725-2 0  9991", "line2": "2 35233  98.7729  93.5583 0041838 238.8758 151.8442 14.41946551912847"}}, "geometry": {"type": "Point", "coordinates": [-78.66449667159719, 21.029612852905487]}}, {"type": "Feature", "properties": {"norad_id": 35234, "name": "FENGYUN 1C DEB", "group": "fengyun-1c-debris", "lat": -20.328166065634655, "lon": -156.80389763142625, "alt_km": 616.0351313606361, "timestamp": "2025-12-24T11:33:00.305271+00:00", "meta": {"OBJECT_NAME": "FENGYUN 1C DEB", "OBJECT_ID": "1999-025DQS", "EPOCH": "2025-12-22T19:18:28.251360", "MEAN_MOTION": 14.65612887, "ECCENTRICITY": 0.01001329, "INCLINATION": 98.0674, "RA_OF_ASC_NODE": 24.5617, "ARG_OF_PERICENTER": 230.4813, "MEAN_ANOMALY": 128.7507, "EPHEMERIS_TYPE": 0, "CLASSIFICATION_TYPE": "U", "NORAD_CAT_ID": 35234, "ELEMENT_SET_NO": 999, "REV_AT_EPOCH": 94503, "BSTAR": 0.00055440323, "MEAN_MOTION_DOT": 3.19e-05, "MEAN_MOTION_DDOT": 0}, "tle": {"line1": "1 35234U 99025DQS 25356.80449365  .00003190  00000+0  55440-3 0  9995", "line2": "2 35234  98.0674  24.5617 0100132 230.4813 128.7507 14.65612887945035"}}, "geometry": {"type": "Point", "coordinates": [-156.80389763142625, -20.328166065634655]}}, {"type": "Feature", "properties": {"norad_id": 35239, "name": "FENGYUN 1C DEB", "group": "fengyun-1c-debris", "lat": 55.89729541939024, "lon": -7.329109228718784, "alt_km": 1131.0653164057321, "timestamp": "2025-12-24T11:33:00.305281+00:00", "meta": {"OBJECT_NAME": "FENGYUN 1C DEB", "OBJECT_ID": "1999-025DQX", "EPOCH": "2025-12-22T22:07:40.821600", "MEAN_MOTION": 13.69239796, "ECCENTRICITY": 0.0229589, "INCLINATION": 99.2657, "RA_OF_ASC_NODE": 157.2202, "ARG_OF_PERICENTER": 343.8182, "MEAN_ANOMALY": 15.5718, "EPHEMERIS_TYPE": 0, "CLASSIFICATION_TYPE": "U", "NORAD_CAT_ID": 35239, "ELEMENT_SET_NO": 999, "REV_AT_EPOCH": 58270, "BSTAR": 0.0011233, "MEAN_MOTION_DOT": 1.129e-05, "MEAN_MOTION_DDOT": 0}, "tle": {"line1": "1 35239U 99025DQX 25356.92200025  .00001129  00000+0  11233-2 0  9992", "line2": "2 35239  99.2657 157.2202 0229589 343.8182  15.5718 13.69239796582709"}}, "geometry": {"type": "Point", "coordinates": [-7.329109228718784, 55.89729541939024]}}]}